[{"OBJECT_NAME":"STARLINK-35353","OBJECT_ID":"2025-211T","EPOCH":"2026-03-09T16:16:15.592800","MEAN_MOTION":15.05660775,"ECCENTRICITY":7.77e-6,"INCLINATION":97.6035,"RA_OF_ASC_NODE":114.1077,"ARG_OF_PERICENTER":76.3388,"MEAN_ANOMALY":283.7847,"EPHEMERIS_TYPE":0,"CLASSIFICATION_TYPE":"U","NORAD_CAT_ID":65669,"ELEMENT_SET_NO":999,"REV_AT_EPOCH":2704,"BSTAR":0.0002516605,"MEAN_MOTION_DOT":3.573e-5,"MEAN_MOTION_DDOT":0},{"OBJECT_NAME":"CZ-6A DEB","OBJECT_ID":"2022-151AAS","EPOCH":"2026-03-09T03:45:24.122016","MEAN_MOTION":15.06999256,"ECCENTRICITY":0.00393195,"INCLINATION":98.6364,"RA_OF_ASC_NODE":147.7741,"ARG_OF_PERICENTER":181.1546,"MEAN_ANOMALY":178.9594,"EPHEMERIS_TYPE":0,"CLASSIFICATION_TYPE":"U","NORAD_CAT_ID":55894,"ELEMENT_SET_NO":999,"REV_AT_EPOCH":17150,"BSTAR":0.0072812999,"MEAN_MOTION_DOT":0.00112507,"MEAN_MOTION_DDOT":0}]
